NORAD_CAT_ID,OBJECT_NAME,OBJECT_TYPE,EPOCH,MEAN_MOTION,ECCENTRICITY,INCLINATION,RA_OF_ASC_NODE,ARG_OF_PERICENTER,MEAN_ANOMALY,BSTAR,MEAN_MOTION_DOT,MEAN_MOTION_DDOT,TLE_LINE0,TLE_LINE1,TLE_LINE2,SEMIMAJOR_AXIS,PERIOD,APOGEE,PERIGEE,DECAYED
54073.0,STARLINK-5146,PAYLOAD,2023-09-20 17:20:42,15.08830879,0.0001172,53.2168,63.3759,69.1577,290.9541,-3.2506e-05,-8.05e-06,0.0,0 STARLINK-5146,1 54073U 22136Y   23263.72271555 -.00000805  00000-0 -32506-4 0  9998,2 54073  53.2168  63.3759 0001172  69.1577 290.9541 15.08830879 50908,6917.908,95.438,540.584,538.962,0.0
54073.0,STARLINK-5146,PAYLOAD,2023-09-21 10:49:57,15.08838789,0.0001183,53.2162,60.1036,67.0845,293.0272,0.00014989,2.098e-05,0.0,0 STARLINK-5146,1 54073U 22136Y   23264.45135577  .00002098  00000-0  14989-3 0  9990,2 54073  53.2162  60.1036 0001183  67.0845 293.0272 15.08838789 51018,6917.884,95.438,540.567,538.931,0.0
54073.0,STARLINK-5146,PAYLOAD,2023-09-21 15:36:06,15.08844397,0.0001302,53.2162,59.2112,72.2338,287.8796,0.00025665,3.8e-05,0.0,0 STARLINK-5146,1 54073U 22136Y   23264.65007383  .00003800  00000-0  25665-3 0  9990,2 54073  53.2162  59.2112 0001302  72.2338 287.8796 15.08844397 51520,6917.867,95.437,540.633,538.831,0.0
54073.0,STARLINK-5146,PAYLOAD,2023-09-21 17:11:29,15.08849631,0.0001218,53.2162,58.9138,68.9741,291.1381,0.0003208,4.823e-05,0.0,0 STARLINK-5146,1 54073U 22136Y   23264.71631180  .00004823  00000-0  32080-3 0  9990,2 54073  53.2162  58.9138 0001218  68.9741 291.1381 15.08849631 51052,6917.851,95.437,540.559,538.873,0.0
54073.0,STARLINK-5146,PAYLOAD,2023-09-22 13:51:30,15.08845804,0.000139,53.2168,55.048,71.8596,288.2547,0.00027916,4.158e-05,0.0,0 STARLINK-5146,1 54073U 22136Y   23265.57743342  .00004158  00000-0  27916-3 0  9992,2 54073  53.2168  55.0480 0001390  71.8596 288.2547 15.08845804 51181,6917.863,95.437,540.689,538.766,0.0
54073.0,STARLINK-5146,PAYLOAD,2023-09-22 17:02:16,15.08850674,0.0001342,53.2176,54.4554,77.9698,282.1445,0.00033831,5.102e-05,0.0,0 STARLINK-5146,1 54073U 22136Y   23265.70991125  .00005102  00000-0  33831-3 0  9994,2 54073  53.2176  54.4554 0001342  77.9698 282.1445 15.08850674 51688,6917.848,95.437,540.641,538.784,0.0
54073.0,STARLINK-5146,PAYLOAD,2023-09-23 13:42:17,15.08840215,0.0001213,53.216,50.5893,69.9434,290.1689,-5.27e-05,-1.126e-05,0.0,0 STARLINK-5146,1 54073U 22136Y   23266.57103222 -.00001126  00000-0 -52700-4 0  9994,2 54073  53.2160  50.5893 0001213  69.9434 290.1689 15.08840215 51331,6917.88,95.438,540.584,538.906,0.0
54073.0,STARLINK-5146,PAYLOAD,2023-09-23 16:53:03,15.08844016,0.0001131,53.2163,49.9938,65.2931,294.8179,1.1322e-05,-1.08e-06,0.0,0 STARLINK-5146,1 54073U 22136Y   23266.70351066 -.00000108  00000-0  11322-4 0  9993,2 54073  53.2163  49.9938 0001131  65.2931 294.8179 15.08844016 51839,6917.868,95.437,540.516,538.951,0.0
54073.0,STARLINK-5146,PAYLOAD,2023-09-24 10:22:18,15.08836207,0.0001173,53.2177,46.7245,77.9108,282.2015,-9.8375e-05,-1.853e-05,0.0,0 STARLINK-5146,1 54073U 22136Y   23267.43215639 -.00001853  00000-0 -98375-4 0  9991,2 54073  53.2177  46.7245 0001173  77.9108 282.2015 15.08836207 51947,6917.892,95.438,540.568,538.946,0.0
54073.0,STARLINK-5146,PAYLOAD,2023-09-24 13:33:04,15.08837554,0.0001192,53.218,46.1303,91.7079,268.405,-5.1113e-05,-1.101e-05,0.0,0 STARLINK-5146,1 54073U 22136Y   23267.56463532 -.00001101  00000-0 -51113-4 0  9997,2 54073  53.2180  46.1303 0001192  91.7079 268.4050 15.08837554 51482,6917.888,95.438,540.577,538.928,0.0
54073.0,STARLINK-5146,PAYLOAD,2023-09-24 16:43:50,15.08847137,0.0001256,53.2179,45.5326,76.3912,283.722,6.6794e-05,7.76e-06,0.0,0 STARLINK-5146,1 54073U 22136Y   23267.69711222  .00000776  00000-0  66794-4 0  9999,2 54073  53.2179  45.5326 0001256  76.3912 283.7220 15.08847137 51986,6917.859,95.437,540.592,538.855,0.0
54073.0,STARLINK-5146,PAYLOAD,2023-09-25 13:23:50,15.08862998,0.0001264,53.2176,41.6693,89.2655,270.8482,0.00038497,5.848e-05,0.0,0 STARLINK-5146,1 54073U 22136Y   23268.55821965  .00005848  00000-0  38497-3 0  9994,2 54073  53.2176  41.6693 0001264  89.2655 270.8482 15.08862998 51634,6917.81,95.436,540.55,538.801,0.0
54073.0,STARLINK-5146,PAYLOAD,2023-09-25 16:34:35,15.08873995,0.0001271,53.2177,41.0738,77.8317,282.2818,0.00052166,8.032e-05,0.0,0 STARLINK-5146,1 54073U 22136Y   23268.69069303  .00008032  00000-0  52166-3 0  9996,2 54073  53.2177  41.0738 0001271  77.8317 282.2818 15.08873995 52130,6917.776,95.435,540.521,538.762,0.0
54073.0,STARLINK-5146,PAYLOAD,2023-09-26 08:28:28,15.0883615,0.0001373,53.2175,38.0965,92.8115,267.3034,-8.8562e-05,-1.697e-05,0.0,0 STARLINK-5146,1 54073U 22136Y   23269.35311201 -.00001697  00000-0 -88562-4 0  9999,2 54073  53.2175  38.0965 0001373  92.8115 267.3034 15.08836150 52239,6917.892,95.438,540.707,538.807,0.0
54073.0,STARLINK-5146,PAYLOAD,2023-09-26 14:50:01,15.08832912,0.0001292,53.218,36.908,73.7225,286.3909,-0.00015627,-2.774e-05,0.0,0 STARLINK-5146,1 54073U 22136Y   23269.61807309 -.00002774  00000-0 -15627-3 0  9995,2 54073  53.2180  36.9080 0001292  73.7225 286.3909 15.08832912 51794,6917.902,95.438,540.661,538.873,0.0
54073.0,STARLINK-5146,PAYLOAD,2023-09-26 16:25:24,15.08834862,0.0001286,53.2173,36.6099,67.2262,292.8866,-9.3624e-05,-1.777e-05,0.0,0 STARLINK-5146,1 54073U 22136Y   23269.68431302 -.00001777  00000-0 -93624-4 0  9994,2 54073  53.2173  36.6099 0001286  67.2262 292.8866 15.08834862 51807,6917.896,95.438,540.651,538.871,0.0
54073.0,STARLINK-5146,PAYLOAD,2023-09-27 13:05:25,15.08835212,0.0001573,53.2183,32.7466,61.798,298.317,3.7212e-05,3.04e-06,0.0,0 STARLINK-5146,1 54073U 22136Y   23270.54543896  .00000304  00000-0  37212-4 0  9997,2 54073  53.2183  32.7466 0001573  61.7980 298.3170 15.08835212 51931,6917.895,95.438,540.848,538.672,0.0
54073.0,STARLINK-5146,PAYLOAD,2023-09-27 14:40:48,15.08839612,0.0001342,53.2183,32.4476,67.5094,292.604,8.1316e-05,1.006e-05,0.0,0 STARLINK-5146,1 54073U 22136Y   23270.61167658  .00001006  00000-0  81316-4 0  9997,2 54073  53.2183  32.4476 0001342  67.5094 292.6040 15.08839612 52429,6917.882,95.438,540.675,538.818,0.0
54073.0,STARLINK-5146,PAYLOAD,2023-09-28 14:31:36,15.08847972,0.0001378,53.2182,27.988,59.61,300.5028,0.00014022,1.945e-05,0.0,0 STARLINK-5146,1 54073U 22136Y   23271.60527840  .00001945  00000-0  14022-3 0  9991,2 54073  53.2182  27.9880 0001378  59.6100 300.5028 15.08847972 52091,6917.856,95.437,540.674,538.768,0.0
54073.0,STARLINK-5146,PAYLOAD,2023-09-28 17:42:22,15.08846188,0.0001428,53.2182,27.3925,61.3983,298.7153,0.00051501,7.919e-05,0.0,0 STARLINK-5146,1 54073U 22136Y   23271.73776146  .00007919  00000-0  51501-3 0  9990,2 54073  53.2182  27.3925 0001428  61.3983 298.7153 15.08846188 52590,6917.861,95.437,540.714,538.739,0.0
54073.0,STARLINK-5146,PAYLOAD,2023-09-29 12:47:00,15.08846148,0.0001674,53.2184,23.8226,102.4401,257.6779,0.00020431,2.966e-05,0.0,0 STARLINK-5146,1 54073U 22136Y   23272.53264306  .00002966  00000-0  20431-3 0  9994,2 54073  53.2184  23.8226 0001674 102.4401 257.6779 15.08846148 52710,6917.862,95.437,540.885,538.569,0.0
54073.0,STARLINK-5146,PAYLOAD,2023-09-29 14:22:23,15.08846161,0.000153,53.219,23.5287,82.0084,278.1081,0.00021808,3.185e-05,0.0,0 STARLINK-5146,1 54073U 22136Y   23272.59888124  .00003185  00000-0  21808-3 0  9993,2 54073  53.2190  23.5287 0001530  82.0084 278.1081 15.08846161 52249,6917.862,95.437,540.785,538.668,0.0
54073.0,STARLINK-5146,PAYLOAD,2023-09-29 23:54:41,15.08849824,0.0001518,53.2192,21.745,80.9773,279.1391,0.00024848,3.67e-05,0.0,0 STARLINK-5146,1 54073U 22136Y   23272.99631903  .00003670  00000-0  24848-3 0  9994,2 54073  53.2192  21.7450 0001518  80.9773 279.1391 15.08849824 52302,6917.85,95.437,540.765,538.665,0.0
54073.0,STARLINK-5146,PAYLOAD,2023-09-30 14:13:09,15.08860162,0.0001475,53.2192,19.0703,83.801,276.315,0.00045955,7.037e-05,0.0,0 STARLINK-5146,1 54073U 22136Y   23273.59247336  .00007037  00000-0  45955-3 0  9997,2 54073  53.2192  19.0703 0001475  83.8010 276.3150 15.08860162 52873,6917.819,95.436,540.704,538.663,0.0
54073.0,STARLINK-5146,PAYLOAD,2023-09-30 23:45:28,15.08851186,0.0001439,53.219,17.2834,82.2835,277.832,0.00028567,4.263e-05,0.0,0 STARLINK-5146,1 54073U 22136Y   23273.98991320  .00004263  00000-0  28567-3 0  9997,2 54073  53.2190  17.2834 0001439  82.2835 277.8320 15.08851186 52932,6917.846,95.437,540.707,538.716,0.0
54073.0,STARLINK-5146,PAYLOAD,2023-10-01 10:53:10,15.08845636,0.0001657,53.2196,15.2076,98.5184,261.5996,-5.6869e-05,-1.193e-05,0.0,0 STARLINK-5146,1 54073U 22136Y   23274.45359346 -.00001193  00000-0 -56869-4 0  9994,2 54073  53.2196  15.2076 0001657  98.5184 261.5996 15.08845636 53004,6917.863,95.437,540.874,538.582,0.0
54073.0,STARLINK-5146,PAYLOAD,2023-10-01 14:03:56,15.08843973,0.0001555,53.2198,14.6111,87.1085,273.0085,-2.1098e-05,-6.24e-06,0.0,0 STARLINK-5146,1 54073U 22136Y   23274.58607388 -.00000624  00000-0 -21098-4 0  9994,2 54073  53.2198  14.6111 0001555  87.1085 273.0085 15.08843973 52547,6917.868,95.437,540.809,538.658,0.0
54073.0,STARLINK-5146,PAYLOAD,2023-10-01 15:39:19,15.08851891,0.0001615,53.2198,14.3125,92.4895,267.6282,0.00015072,2.112e-05,0.0,0 STARLINK-5146,1 54073U 22136Y   23274.65231070  .00002112  00000-0  15072-3 0  9999,2 54073  53.2198  14.3125 0001615  92.4895 267.6282 15.08851891 52551,6917.844,95.437,540.826,538.592,0.0
54073.0,STARLINK-5146,PAYLOAD,2023-10-02 12:19:21,15.08828935,0.0001662,53.2192,10.4458,79.0961,281.0218,-0.00019264,-3.352e-05,0.0,0 STARLINK-5146,1 54073U 22136Y   23275.51344303 -.00003352  00000-0 -19264-3 0  9995,2 54073  53.2192  10.4458 0001662  79.0961 281.0218 15.08828935 53168,6917.914,95.438,540.929,538.629,0.0
54073.0,STARLINK-5146,PAYLOAD,2023-10-02 13:54:44,15.0882613,0.0001713,53.2189,10.1491,78.8552,281.2632,-0.00014262,-2.556e-05,0.0,0 STARLINK-5146,1 54073U 22136Y   23275.57968434 -.00002556  00000-0 -14262-3 0  9996,2 54073  53.2189  10.1491 0001713  78.8552 281.2632 15.08826130 52692,6917.923,95.438,540.973,538.603,0.0
